1 40088U 14040C   16055.54633821 +.00000166 +00000-0 +79627-4 0  9996,2 40088 047.0049 159.6232 0022350 213.7846 146.1614 14.53056880085744
1 40088U 14040C   16055.54633821 +.00000166 +00000-0 +79627-4 0  9996,2 40088 047.0049 159.6232 0022350 213.7846 146.1614 14.53056880085744
1 40088U 14040C   16056.57774465  .00000201  00000-0  87956-4 0  9994,2 40088  47.0049 154.7920 0022416 218.4119 141.5169 14.53057800 86043
1 40088U 14040C   16057.67791132  .00000179  00000-0  82694-4 0  9994,2 40088  47.0049 149.6387 0022473 223.3493 136.5623 14.53058436 86209
1 40088U 14040C   16058.70931703  .00000210  00000-0  90123-4 0  9991,2 40088  47.0050 144.8075 0022525 227.9122 131.9846 14.53059405 86358
1 40088U 14040C   16059.60320189 +.00000207 +00000-0 +89435-4 0  9991,2 40088 047.0051 140.6204 0022568 231.9054 127.9794 14.53060041086336
1 40088U 14040C   16060.22204503  .00000155  00000-0  76988-4 0  9993,2 40088  47.0051 137.7216 0022595 234.6803 125.1968 14.53060241 86579
1 40088U 14040C   16060.56584689 +.00000168 +00000-0 +80066-4 0  9992,2 40088 047.0051 136.1113 0022611 236.1914 123.6816 14.53060524086475
1 40088U 14040C   16061.45973118  .00000209  00000-0  89731-4 0  9994,2 40088  47.0050 131.9242 0022646 240.1622 119.7010 14.53061435 86754
1 40088U 14040C   16061.66601227 +.00000208 +00000-0 +89590-4 0  9998,2 40088 047.0050 130.9580 0022649 241.0934 118.7677 14.53061559086639
1 40088U 14040C   16062.69742188  .00000196  00000-0  86818-4 0  9990,2 40088  47.0048 126.1265 0022659 245.7346 114.1170 14.53053902 86936
1 40088U 14040C   16063.59131126 +.00000129 +00000-0 +70813-4 0  9998,2 40088 047.0049 121.9394 0022669 249.6452 110.1995 14.53054157086917
1 40088U 14040C   16063.93511479  .00000075  00000-0  57873-4 0  9990,2 40088  47.0049 120.3289 0022679 251.1721 108.6702 14.53054243 87118
1 40088U 14040C   16064.62272194 +.00000132 +00000-0 +71514-4 0  9997,2 40088 047.0048 117.1081 0022688 254.2099 105.6282 14.53054807087063
1 40088U 14040C   16065.17280747  .00000144  00000-0  74339-4 0  9992,2 40088  47.0047 114.5312 0022701 256.6449 103.1903 14.53055206 87293
1 40088U 14040C   16065.58537178 +.00000158 +00000-0 +77673-4 0  9999,2 40088 047.0047 112.5987 0022698 258.4542 101.3793 14.53055500087203
1 40088U 14040C   16066.47926077  .00000164  00000-0  79075-4 0  9993,2 40088  47.0048 108.4115 0022720 262.4288  97.4014 14.53056012 87489
1 40088U 14040C   16066.54802144 +.00000174 +00000-0 +81396-4 0  9999,2 40088 047.0048 108.0894 0022720 262.7384 097.0917 14.53056111087342
1 40088U 14040C   16067.51067064  .00000205  00000-0  88949-4 0  9997,2 40088  47.0048 103.5801 0022726 266.9764  92.8519 14.53056974 87634
1 40088U 14040C   16067.57943133 +.00000202 +00000-0 +88236-4 0  9999,2 40088 047.0048 103.2580 0022726 267.2772 092.5510 14.53056999087497
1 40088U 14040C   16068.54208050 +.00000179 +00000-0 +82553-4 0  9998,2 40088 047.0048 098.7487 0022727 271.5374 088.2906 14.53057554087633
1 40088U 14040C   16069.09216564  .00000156  00000-0  77277-4 0  9990,2 40088  47.0049  96.1718 0022733 273.9635  85.8650 14.53057823 87869
1 40088U 14040C   16069.50472952 +.00000164 +00000-0 +79158-4 0  9990,2 40088 047.0049 094.2394 0022727 275.7965 084.0327 14.53058157087770
1 40088U 14040C   16070.19233579  .00000148  00000-0  75332-4 0  9999,2 40088  47.0049  91.0184 0022727 278.8228  81.0082 14.53058593 88026
1 40088U 14040C   16070.53613896 +.00000157 +00000-0 +77295-4 0  9991,2 40088 047.0049 089.4080 0022721 280.3561 079.4762 14.53058881087928
1 40088U 14040C   16071.49878751  .00000154  00000-0  76759-4 0  9991,2 40088  47.0050  84.8986 0022710 284.6130  75.2235 14.53059609 88212
1 40088U 14040C   16072.46143577 +.00000181 +00000-0 +83168-4 0  9992,2 40088 047.0050 080.3893 0022696 288.8650 070.9772 14.53060512088208
1 40088U 14040C   16073.14904169  .00000144  00000-0  74322-4 0  9991,2 40088  47.0050  77.1681 0022686 291.8949  67.9522 14.53060801 88458
1 40088U 14040C   16073.49284472 +.00000162 +00000-0 +78566-4 0  9991,2 40088 047.0050 075.5578 0022676 293.4349 066.4150 14.53061107088356
1 40088U 14040C   16074.18045049  .00000116  00000-0  67645-4 0  9998,2 40088  47.0051  72.3367 0022661 296.4670  63.3889 14.53061344 88608
1 40088U 14040C   16074.45549283 +.00000116 +00000-0 +67600-4 0  9998,2 40088 047.0051 071.0483 0022651 297.6977 062.1608 14.53061518088491
1 40088U 14040C   16075.41814072  .00000199  00000-0  87441-4 0  9992,2 40088  47.0052  66.5390 0022627 301.9971  57.8714 14.53062605 88783
1 40088U 14040C   16075.96822525 +.00000172 +00000-0 +81002-4 0  9992,2 40088 047.0053 063.9621 0022616 304.4429 055.4317 14.53062793088710
1 40088U 14040C   16076.44954895  .00000215  00000-0  91286-4 0  9995,2 40088  47.0054  61.7075 0022593 306.5589  53.3215 14.53063394 88930
1 40088U 14040C   16076.93087284 +.00000159 +00000-0 +78027-4 0  9993,2 40088 047.0055 059.4527 0022580 308.6969 051.1895 14.53063386088850
1 40088U 14040C   16077.96228071 +.00000147 +00000-0 +75149-4 0  9997,2 40088 047.0056 054.6213 0022539 313.2576 046.6426 14.53064044089009
1 40088U 14040C   16078.16856229  .00000175  00000-0  81797-4 0  9999,2 40088  47.0057  53.6550 0022527 314.1554  45.7477 14.53064322 89180
1 40088U 14040C   16078.92492790 +.00000147 +00000-0 +75092-4 0  9992,2 40088 047.0058 050.1120 0022501 317.5234 042.3908 14.53064681089146
1 40088U 14040C   16079.40625155  .00000152  00000-0  76292-4 0  9998,2 40088  47.0059  47.8575 0022474 319.6897  40.2320 14.53065001 89367
1 40088U 14040C   16079.95633542 +.00000134 +00000-0 +71923-4 0  9993,2 40088 047.0059 045.2807 0022450 322.1399 037.7905 14.53065302089293
1 40088U 14040C   16080.36889849 +.00000137 +00000-0 +72679-4 0  9995,2 40088 047.0060 043.3483 0022426 324.0115 035.9258 14.53065563089351
1 40088U 14040C   16081.12526374  .00000121  00000-0  68766-4 0  9996,2 40088  47.0061  39.8053 0022388 327.3877  32.5623 14.53065979 89612
1 40088U 14040C   16081.88162891 +.00000109 +00000-0 +65929-4 0  9993,2 40088 047.0062 036.2623 0022354 330.7919 029.1713 14.53066378089723
1 40088U 14040C   16082.91303577 +.00000072 +00000-0 +57126-4 0  9995,2 40088 047.0062 031.4310 0022292 335.4548 024.5273 14.53066794089726
1 40088U 14040C   16083.11931705  .00000075  00000-0  57852-4 0  9997,2 40088  47.0063  30.4648 0022281 336.3747  23.6112 14.53066948 89902
1 40088U 14040C   16084.15072365  .00000101  00000-0  64056-4 0  9994,2 40088  47.0064  25.6336 0022224 341.0437  18.9617 14.53067641 90055
1 40088U 14040C   16084.90708830 +.00000062 +00000-0 +54764-4 0  9991,2 40088 047.0064 022.0906 0022182 344.4487 015.5713 14.53067825090014
1 40088U 14040C   16085.18212995  .00000074  00000-0  57581-4 0  9997,2 40088  47.0064  20.8023 0022169 345.7094  14.3161 14.53068029 90205
1 40088U 14040C   16085.25089036 +.00000074 +00000-0 +57563-4 0  9993,2 40088 047.0064 020.4803 0022165 346.0303 013.9965 14.53068067090063
